COSMOS 2058             
1 20465U 90010A   26072.95167043  .00004757  00000+0  28022-3 0  9998
2 20465  82.4666  43.2278 0008705 330.4336  29.6401 15.11363268942888
SL-14 R/B               
1 20466U 90010B   26072.93602690  .00000512  00000+0  59208-4 0  9995
2 20466  82.4987 263.3987 0018373 287.2742  72.6462 14.83573016929117
SL-14 R/B               
1 20511U 90018B   26072.89044040  .00000595  00000+0  71595-4 0  9992
2 20511  82.5210 219.1630 0017618  79.3331 280.9866 14.82150039923208
HST                     
1 20580U 90037B   26072.92291013  .00008620  00000+0  28446-3 0  9990
2 20580  28.4723  11.1207 0001777 167.7784 192.2855 15.29556322773961
SL-16 R/B               
1 20625U 90046B   26072.93870190 -.00000099  00000+0 -26331-4 0  9996
2 20625  70.9978 288.9905 0016190 293.9574  65.9853 14.15011256848994
COSMOS 2084             
1 20663U 90055A   26072.97244503  .00002665  00000+0  19692-3 0  9995
2 20663  62.7915 320.9716 0016418 191.1309 168.9431 15.05678292936961
SL-6 R/B(2)             
1 20666U 90055D   26072.89444519  .00002465  00000+0  19275-3 0  9993
2 20666  62.7824 239.5510 0025477 348.0578  11.9914 15.03617639938822
SL-8 R/B                
1 20775U 90078B   26072.94312380  .00017388  00000+0  51266-3 0  9991
2 20775  82.8999 247.4844 0361314 359.6974   0.3966 14.89210490809933
SL-8 R/B                
1 21088U 91006B   26072.32859919  .00000071  00000+0  55832-4 0  9992
2 21088  82.9465 167.3408 0022864  28.4025  31.7202 13.77494777764577
OKEAN-3                 
1 21397U 91039A   26072.66870196  .00004072  00000+0  28584-3 0  9996
2 21397  82.5200 332.9891 0013593 322.6481  37.3800 15.04839137865633
COSMOS 2151             
1 21422U 91042A   26072.95236189  .00002698  00000+0  21384-3 0  9992
2 21422  82.4929  79.5629 0013772  50.6644 309.5798 15.00123072863830
SL-14 R/B               
1 21423U 91042B   26072.80928416  .00000587  00000+0  71305-4 0  9992
2 21423  82.4932 216.3193 0016020 224.1030 135.8908 14.81834487853680
